{
  "norad_id": 56371,
  "name": "ARCTURUS",
  "history": [
    {
      "epoch": "2026-03-28T15:07:48.321696Z",
      "apogee_km": 35790.78901126185,
      "perigee_km": 35782.13683535758,
      "latitude_deg": 1.7825161629546653,
      "longitude_deg": 72.46654488628354,
      "height_km": 35786.414624002144,
      "semi_major_axis_km": 42164.59992330972,
      "eccentricity": 0.0001026,
      "inclination_deg": 2.5677,
      "raan_deg": 80.9515,
      "arg_perigee_deg": 305.8506,
      "mean_anomaly_deg": 98.6611,
      "mean_motion_rev_day": 1.00272256
    }
  ]
}